{
  "type": "FeatureCollection",
  "features": [
    {
      "type": "Feature",
      "properties": {
        "norad_id": 33412,
        "name": "COSMO-SKYMED 3",
        "group": "resource",
        "lat": 79.45358678106507,
        "lon": 142.73128618527463,
        "alt_km": 547.5298505881447,
        "timestamp": "2025-12-06T05:40:08.892979+00:00",
        "meta_object_name": "COSMO-SKYMED 3",
        "meta_object_id": "2008-054A",
        "meta_epoch": "2025-12-05T06:57:55.107360",
        "meta_mean_motion": 15.05243631,
        "meta_eccentricity": 0.00155932,
        "meta_inclination": 97.8458,
        "meta_ra_of_asc_node": 189.5569,
        "meta_arg_of_pericenter": 199.0141,
        "meta_mean_anomaly": 161.0504,
        "meta_ephemeris_type": 0,
        "meta_classification_type": "U",
        "meta_norad_cat_id": 33412,
        "meta_element_set_no": 999,
        "meta_rev_at_epoch": 92775,
        "meta_bstar": 0.00060595947,
        "meta_mean_motion_dot": 8.618e-05,
        "meta_mean_motion_ddot": 0,
        "tle_line1": "1 33412U 08054A   25339.29022115  .00008618  00000+0  60596-3 0  9995",
        "tle_line2": "2 33412  97.8458 189.5569 0015593 199.0141 161.0504 15.05243631927754"
      },
      "geometry": {
        "type": "Point",
        "coordinates": [
          142.73128618527463,
          79.45358678106507
        ]
      }
    },
    {
      "type": "Feature",
      "properties": {
        "norad_id": 33446,
        "name": "YAOGAN-4",
        "group": "resource",
        "lat": -52.85297089973622,
        "lon": 79.8146899722501,
        "alt_km": 631.617692910374,
        "timestamp": "2025-12-06T05:40:08.892989+00:00",
        "meta_object_name": "YAOGAN-4",
        "meta_object_id": "2008-061A",
        "meta_epoch": "2025-12-05T05:56:32.138016",
        "meta_mean_motion": 14.82645538,
        "meta_eccentricity": 0.00142248,
        "meta_inclination": 97.9172,
        "meta_ra_of_asc_node": 269.4209,
        "meta_arg_of_pericenter": 348.3495,
        "meta_mean_anomaly": 11.7387,
        "meta_ephemeris_type": 0,
        "meta_classification_type": "U",
        "meta_norad_cat_id": 33446,
        "meta_element_set_no": 999,
        "meta_rev_at_epoch": 91692,
        "meta_bstar": 0.00038125296,
        "meta_mean_motion_dot": 3.024e-05,
        "meta_mean_motion_ddot": 0,
        "tle_line1": "1 33446U 08061A   25339.24759419  .00003024  00000+0  38125-3 0  9998",
        "tle_line2": "2 33446  97.9172 269.4209 0014224 348.3495  11.7387 14.82645538916928"
      },
      "geometry": {
        "type": "Point",
        "coordinates": [
          79.8146899722501,
          -52.85297089973622
        ]
      }
    },
    {
      "type": "Feature",
      "properties": {
        "norad_id": 33492,
        "name": "GOSAT (IBUKI)",
        "group": "resource",
        "lat": -77.82338877310701,
        "lon": 130.08596076768927,
        "alt_km": 676.8740197954357,
        "timestamp": "2025-12-06T05:40:08.893000+00:00",
        "meta_object_name": "GOSAT (IBUKI)",
        "meta_object_id": "2009-002A",
        "meta_epoch": "2025-12-05T07:07:41.394432",
        "meta_mean_motion": 14.67549486,
        "meta_eccentricity": 9.599e-05,
        "meta_inclination": 98.0771,
        "meta_ra_of_asc_node": 88.0039,
        "meta_arg_of_pericenter": 85.5947,
        "meta_mean_anomaly": 274.5368,
        "meta_ephemeris_type": 0,
        "meta_classification_type": "U",
        "meta_norad_cat_id": 33492,
        "meta_element_set_no": 999,
        "meta_rev_at_epoch": 90302,
        "meta_bstar": 0.00031598273,
        "meta_mean_motion_dot": 1.745e-05,
        "meta_mean_motion_ddot": 0,
        "tle_line1": "1 33492U 09002A   25339.29700688  .00001745  00000+0  31598-3 0  9999",
        "tle_line2": "2 33492  98.0771  88.0039 0000959  85.5947 274.5368 14.67549486903027"
      },
      "geometry": {
        "type": "Point",
        "coordinates": [
          130.08596076768927,
          -77.82338877310701
        ]
      }
    },
    {
      "type": "Feature",
      "properties": {
        "norad_id": 35681,
        "name": "DEIMOS-1",
        "group": "resource",
        "lat": -4.234148232952491,
        "lon": -39.43268457621336,
        "alt_km": 649.0204948977917,
        "timestamp": "2025-12-06T05:40:08.893012+00:00",
        "meta_object_name": "DEIMOS-1",
        "meta_object_id": "2009-041A",
        "meta_epoch": "2025-12-05T07:40:14.681568",
        "meta_mean_motion": 14.74934848,
        "meta_eccentricity": 0.000269,
        "meta_inclination": 97.7146,
        "meta_ra_of_asc_node": 140.2688,
        "meta_arg_of_pericenter": 93.6149,
        "meta_mean_anomaly": 266.5368,
        "meta_ephemeris_type": 0,
        "meta_classification_type": "U",
        "meta_norad_cat_id": 35681,
        "meta_element_set_no": 999,
        "meta_rev_at_epoch": 87830,
        "meta_bstar": 0.00020068529,
        "meta_mean_motion_dot": 1.301e-05,
        "meta_mean_motion_ddot": 0,
        "tle_line1": "1 35681U 09041A   25339.31961437  .00001301  00000+0  20069-3 0  9997",
        "tle_line2": "2 35681  97.7146 140.2688 0002690  93.6149 266.5368 14.74934848878301"
      },
      "geometry": {
        "type": "Point",
        "coordinates": [
          -39.43268457621336,
          -4.234148232952491
        ]
      }
    },
    {
      "type": "Feature",
      "properties": {
        "norad_id": 35682,
        "name": "DUBAISAT-1",
        "group": "resource",
        "lat": 52.007676389000096,
        "lon": -58.6438620126506,
        "alt_km": 647.7583102701701,
        "timestamp": "2025-12-06T05:40:08.893023+00:00",
        "meta_object_name": "DUBAISAT-1",
        "meta_object_id": "2009-041B",
        "meta_epoch": "2025-12-05T07:55:22.261728",
        "meta_mean_motion": 14.74570115,
        "meta_eccentricity": 0.00099937,
        "meta_inclination": 97.9785,
        "meta_ra_of_asc_node": 110.1194,
        "meta_arg_of_pericenter": 340.0066,
        "meta_mean_anomaly": 20.075,
        "meta_ephemeris_type": 0,
        "meta_classification_type": "U",
        "meta_norad_cat_id": 35682,
        "meta_element_set_no": 999,
        "meta_rev_at_epoch": 87652,
        "meta_bstar": 0.00039996235,
        "meta_mean_motion_dot": 2.615e-05,
        "meta_mean_motion_ddot": 0,
        "tle_line1": "1 35682U 09041B   25339.33011877  .00002615  00000+0  39996-3 0  9992",
        "tle_line2": "2 35682  97.9785 110.1194 0009993 340.0066  20.0750 14.74570115876524"
      },
      "geometry": {
        "type": "Point",
        "coordinates": [
          -58.6438620126506,
          52.007676389000096
        ]
      }
    },
    {
      "type": "Feature",
      "properties": {
        "norad_id": 35931,
        "name": "OCEANSAT-2",
        "group": "resource",
        "lat": -74.88926309531112,
        "lon": 129.11759604855786,
        "alt_km": 913.9720873375754,
        "timestamp": "2025-12-06T05:40:08.893035+00:00",
        "meta_object_name": "OCEANSAT-2",
        "meta_object_id": "2009-051A",
        "meta_epoch": "2025-12-05T06:08:24.244224",
        "meta_mean_motion": 13.9962634,
        "meta_eccentricity": 0.00165099,
        "meta_inclination": 98.2229,
        "meta_ra_of_asc_node": 340.6154,
        "meta_arg_of_pericenter": 64.5301,
        "meta_mean_anomaly": 295.7571,
        "meta_ephemeris_type": 0,
        "meta_classification_type": "U",
        "meta_norad_cat_id": 35931,
        "meta_element_set_no": 999,
        "meta_rev_at_epoch": 85220,
        "meta_bstar": -7.1622548e-05,
        "meta_mean_motion_dot": -1.42e-06,
        "meta_mean_motion_ddot": 0,
        "tle_line1": "1 35931U 09051A   25339.25583616 -.00000142  00000+0 -71623-4 0  9995",
        "tle_line2": "2 35931  98.2229 340.6154 0016509  64.5301 295.7571 13.99626340852204"
      },
      "geometry": {
        "type": "Point",
        "coordinates": [
          129.11759604855786,
          -74.88926309531112
        ]
      }
    },
    {
      "type": "Feature",
      "properties": {
        "norad_id": 35946,
        "name": "WORLDVIEW-2 (WV-2)",
        "group": "resource",
        "lat": -28.9301739785118,
        "lon": -133.31698646239562,
        "alt_km": 774.4657139949704,
        "timestamp": "2025-12-06T05:40:08.893046+00:00",
        "meta_object_name": "WORLDVIEW-2 (WV-2)",
        "meta_object_id": "2009-055A",
        "meta_epoch": "2025-12-05T06:59:06.116928",
        "meta_mean_motion": 14.37647493,
        "meta_eccentricity": 0.00054198,
        "meta_inclination": 98.4769,
        "meta_ra_of_asc_node": 50.4794,
        "meta_arg_of_pericenter": 84.7742,
        "meta_mean_anomaly": 275.4064,
        "meta_ephemeris_type": 0,
        "meta_classification_type": "U",
        "meta_norad_cat_id": 35946,
        "meta_element_set_no": 999,
        "meta_rev_at_epoch": 84778,
        "meta_bstar": 0.00014394895,
        "meta_mean_motion_dot": 3.89e-06,
        "meta_mean_motion_ddot": 0,
        "tle_line1": "1 35946U 09055A   25339.29104302  .00000389  00000+0  14395-3 0  9993",
        "tle_line2": "2 35946  98.4769  50.4794 0005419  84.7742 275.4064 14.37647493847782"
      },
      "geometry": {
        "type": "Point",
        "coordinates": [
          -133.31698646239562,
          -28.9301739785118
        ]
      }
    }
  ]
}